C/2022 F1 (ATLAS),e,57.9809,350.6365,278.3975,56259,0.0000001,0.99989369,0.0000,08/06.2843/2022,2000,g  7.0,4.0
# From MPC194179
C/2022 H1 (PANSTARRS),e,49.8658,6.3028,246.2906,868.7282,0.0000385,0.99115004,0.0000,01/18.4737/2024,2000,g  6.0,4.0
# From MPC194180
C/2022 JK5 (PANSTARRS),e,16.8283,59.6530,247.3502,43.41707,0.0034452,0.93791808,3.8915,06/01.0/2026,2000,g 11.0,4.0
# From MPC194180
C/2022 L2 (ATLAS),h,03/11.9025/2024,129.3106,39.2514,199.9242,1.000249,2.694441,2000,6.5,4.0
# From MPEC 2026-K60
C/2022 N2 (PANSTARRS),h,08/01.1131/2025,5.5033,319.7294,75.4615,1.004058,3.826361,2000,6.0,4.0
# From MPC194180
C/2022 O1 (ATLAS),h,02/14.6416/2022,71.0751,49.9022,268.9270,1.000289,7.435160,2000,6.0,4.0
# From MPC194181
P/2022 P2 (ZTF),e,12.4415,291.1679,137.8175,4.493663,0.1034674,0.55759764,147.0449,06/01.0/2026,2000,g 12.5,4.0
# From MPEC 2026-KB8
C/2022 QE78 (ATLAS),e,36.6585,119.8920,0.6588,1474,0.0000174,0.99628595,0.0000,09/12.1728/2025,2000,g  5.0,4.0
# From MPC194181
P/2022 R1 (PANSTARRS),e,7.3923,175.5734,221.5857,7.113987,0.0519439,0.49959456,50.5288,06/01.0/2026,2000,g 11.5,4.0
# From MPC194181
C/2022 R3 (Leonard),h,03/05.9341/2023,43.0572,8.2697,72.9635,1.001415,5.135182,2000,9.0,4.0
# From MPC194181
P/2022 R5 (PANSTARRS),e,15.2924,115.0393,240.4580,3.071020,0.1831387,0.19446109,268.8037,06/01.0/2026,2000,g 16.0,4.0
# From MPEC 2026-KB8
C/2022 R6 (PANSTARRS),h,08/27.2310/2025,57.0362,150.7752,320.0083,1.004953,6.566474,2000,5.0,4.0
# From MPC194182
P/2022 S1 (PANSTARRS),e,34.5617,136.0842,262.8565,6.407962,0.0607609,0.50714750,84.0144,06/01.0/2026,2000,g 13.0,4.0
# From MPC194182
C/2022 S4 (Lemmon),e,101.1955,220.1785,268.5555,1421,0.0000184,0.99805645,0.0000,07/18.7865/2024,2000,g  8.0,4.0
# From MPC194182
C/2022 T1 (Lemmon),h,02/17.5698/2024,22.5372,236.8986,324.3021,1.000705,3.443405,2000,9.0,4.0
# From MPC194182
C/2022 U1 (Leonard),h,03/26.2299/2024,128.1389,72.5336,78.6164,1.000696,4.201668,2000,8.5,4.0
# From MPC194182
C/2022 U3 (Bok),e,33.6612,272.7870,189.1599,9804,0.0000010,0.99950749,0.0000,07/28.6894/2024,2000,g  7.5,4.0
# From MPC194182
C/2022 U4 (Bok),e,52.0604,132.9185,88.9620,3253,0.0000053,0.99910990,0.0000,08/03.7898/2023,2000,g 10.5,4.0
# From MPC194182
C/2022 V2 (Lemmon),e,98.9103,332.8290,168.9846,36.67985,0.0044367,0.94367255,4.1804,06/01.0/2026,2000,g 12.0,4.0
# From MPC194182
P/2022 W1 (Rankin),e,13.4602,38.8442,17.9695,6.977821,0.0534717,0.51608402,72.4134,06/01.0/2026,2000,g 12.5,4.0
# From MPC194183
C/2022 W2 (ATLAS),e,63.4900,320.4199,123.3599,340.3068,0.0001570,0.99080863,0.0000,03/08.5452/2023,2000,g 11.5,4.0
# From MPEC 2026-KB8
C/2023 A3 (Tsuchinshan-ATLAS),h,09/27.7954/2024,139.1039,21.6446,308.5653,1.000172,0.391490,2000,6.5,3.2
# From MPEC 2026-J11
P/2023 B1 (PANSTARRS),e,14.5863,78.5669,81.9812,7.072314,0.0524037,0.13148124,58.6901,06/01.0/2026,2000,g  5.5,4.0
# From MPC194183
P/2023 B3 (PANSTARRS),e,9.1557,153.9685,240.3828,4.552740,0.1014600,0.12177828,212.6195,06/01.0/2026,2000,g 10.5,4.0
# From MPEC 2026-GD5
C/2023 C2 (ATLAS),e,48.3225,301.0060,357.4160,1629,0.0000150,0.99854626,0.0000,11/16.6665/2024,2000,g  7.0,4.0
# From MPEC 2026-KB8
C/2023 F3 (ATLAS),h,02/02.8009/2025,145.9625,109.4687,265.5654,1.002843,5.191947,2000,6.0,4.0
# From MPC191587
C/2023 H1 (PANSTARRS),e,21.7825,292.6455,333.7234,744.2698,0.0000485,0.99402560,0.0000,11/28.4758/2024,2000,g  8.5,4.0
# From MPEC 2026-HH0
C/2023 H3 (PANSTARRS),e,2.4883,55.0755,193.2342,13.61679,0.0196152,0.61593044,16.3590,06/01.0/2026,2000,g 10.0,4.0
# From MPEC 2026-KB8
C/2023 H5 (Lemmon),h,06/30.4490/2025,97.8550,159.4716,60.1249,1.000630,4.312967,2000,7.0,4.0
# From MPC194184
P/2023 JN16 (Lemmon),e,3.7025,11.7641,353.5181,2.697679,0.2224429,0.14793352,114.8159,06/01.0/2026,2000,g 14.0,4.0
# From MPC194184
P/2023 M1 (PANSTARRS),e,12.2925,216.8657,79.6816,6.837347,0.0551280,0.58661135,49.6129,06/01.0/2026,2000,g 13.5,4.0
# From MPC194185
P/2023 M2 (PANSTARRS),e,19.7113,83.2573,243.7661,5.589063,0.0745926,0.36897717,77.5106,06/01.0/2026,2000,g 12.5,4.0
# From MPC194185
P/2023 M4 (ATLAS),e,7.5920,296.2675,320.3636,5.441843,0.0776399,0.27920273,117.2541,06/01.0/2026,2000,g  7.5,4.0
# From MPC194185
C/2023 P1 (Nishimura),e,132.4856,66.7677,116.1742,55.84119,0.0023620,0.99599352,0.0000,09/17.4746/2023,2000,g 10.0,4.0
# From MPC194185
C/2023 Q1 (PANSTARRS),h,12/01.0776/2024,36.6421,7.1242,84.4289,1.004717,2.576518,2000,10.0,4.0
# From MPC194185
C/2023 Q2 (PANSTARRS),e,104.0614,92.6758,171.6476,326.8008,0.0001668,0.99018471,0.0000,06/23.7619/2024,2000,g 11.5,4.0
# From MPEC 2026-KB8
C/2023 R1 (PANSTARRS),h,04/13.3761/2026,149.3143,62.5703,144.2596,1.002332,3.570079,2000,6.0,4.0
# From MPC194185
C/2023 R2 (PANSTARRS),h,08/12.2409/2024,30.6983,188.8540,337.3499,1.000392,0.904827,2000,10.5,4.0
# From MPC194185
C/2023 RN3 (ATLAS),e,10.3519,207.0663,130.6155,10.15739,0.0304461,0.48971524,37.3911,06/01.0/2026,2000,g  7.5,4.0
# From MPEC 2026-GD5
C/2023 RS61 (PANSTARRS),e,19.9470,347.0365,119.5569,11.89345,0.0240294,0.32793658,337.9634,06/01.0/2026,2000,g  6.8,4.0
# From MPEC 2026-K60
P/2023 S1 (PANSTARRS),e,9.1575,317.2857,180.3721,3.845211,0.1307145,0.31853064,60.3393,06/01.0/2026,2000,g 11.5,4.0
# From MPC194186
P/2023 T1 (PANSTARRS),e,6.6119,249.5806,202.9219,4.227013,0.1134106,0.33304736,83.8150,06/01.0/2026,2000,g 14.0,4.0
# From MPC194186
C/2023 T3 (Fuls),e,27.2168,246.0013,302.8601,1003,0.0000310,0.99646299,0.0000,01/25.4659/2025,2000,g  8.5,4.0
# From MPEC 2026-HH0
C/2023 TD22 (Lemmon),e,170.4876,5.5820,32.5285,48.28777,0.0029373,0.95122125,1.8291,06/01.0/2026,2000,g 12.5,4.0
# From MPC191587
C/2023 U1 (Fuls),e,108.1481,305.7996,255.6732,4611,0.0000031,0.99892138,0.0000,10/13.2389/2024,2000,g  8.0,4.0
# From MPEC 2026-KB8
C/2023 V1 (Lemmon),h,07/13.0705/2025,102.0068,15.0542,103.3221,1.000309,5.092688,2000,8.5,4.0
# From MPC194186
P/2023 V2 (PANSTARRS),e,9.8883,95.4730,330.5137,7.214725,0.0508598,0.56961048,43.1608,06/01.0/2026,2000,g 13.5,4.0
# From MPC194186
C/2023 V3 (PANSTARRS),e,40.6238,91.2632,291.8127,12.68616,0.0218127,0.64543936,22.5831,06/01.0/2026,2000,g 11.5,4.0
# From MPC194186
C/2023 V4 (Camarasa-Duszanowicz),h,05/30.4622/2024,67.0995,66.3255,50.8870,1.001318,1.122205,2000,12.0,4.0
# From MPC194187
P/2023 V6 (PANSTARRS),e,3.9847,189.3646,191.2840,5.270929,0.0814467,0.17548129,105.0138,06/01.0/2026,2000,g 11.5,4.0
# From MPC194187
C/2023 X1 (Leonard),e,110.5949,136.9607,321.4953,155.5551,0.0005080,0.99387401,0.0000,10/17.7837/2023,2000,g 13.5,3.2
# From MPEC 2026-KB8
C/2023 X2 (Lemmon),h,12/28.5253/2025,76.9809,66.3028,64.8073,1.000108,5.088648,2000,8.5,3.2
# From MPC194187
P/2023 X3 (PANSTARRS),e,4.4827,62.0190,40.9539,4.247667,0.1125844,0.28607393,86.6407,06/01.0/2026,2000,g 15.5,4.0
# From MPC194187
C/2023 X4 (Hogan),e,11.5899,28.7697,100.6503,9.934034,0.0314786,0.63156146,23.1885,06/01.0/2026,2000,g 12.0,4.0
# From MPC194187
C/2023 X7 (PANSTARRS),e,69.1275,119.2056,354.3871,3484,0.0000048,0.99861652,0.0000,05/14.9288/2025,2000,g  9.0,4.0
# From MPC194187
P/2023 Y2 (Gibbs),e,6.9914,79.2312,16.9575,3.748762,0.1357914,0.39207205,139.2957,06/01.0/2026,2000,g 15.5,4.0
# From MPEC 2026-KB8
C/2024 A1 (ATLAS),e,94.5050,112.1398,353.1952,10187,0.0000010,0.99961968,0.0000,06/12.9453/2025,2000,g  7.0,4.0
# From MPC194187
C/2024 A2 (ATLAS),e,119.1195,78.1737,295.5076,32.13730,0.0054099,0.94148492,4.1298,06/01.0/2026,2000,g 12.5,4.0
# From MPC194188
C/2024 B1 (Lemmon),h,10/07.7953/2024,70.8910,79.1880,66.2302,1.001261,1.633909,2000,13.0,4.0
# From MPC194188
C/2024 B2 (Lemmon),e,99.8730,294.3880,130.3197,1178,0.0000244,0.99653710,0.0000,10/05.2428/2023,2000,g 11.5,4.0
# From MPC194188
C/2024 C1 (PANSTARRS),e,14.2255,83.8122,94.5239,10.59971,0.0285603,0.58363383,18.2376,06/01.0/2026,2000,g 11.5,4.0
# From MPC194188
C/2024 C2 (PANSTARRS),e,27.2834,66.4575,87.6522,16.25483,0.0150394,0.44679449,6.6878,06/01.0/2026,2000,g  6.0,4.0
# From MPC194188
C/2024 C3 (PANSTARRS),e,22.4468,359.6950,159.7876,11.68547,0.0246737,0.42537690,23.0409,06/01.0/2026,2000,g  9.0,4.0
# From MPC194188
C/2024 D1 (Lemmon),e,132.4478,179.6520,125.8053,43634,0.0000001,0.99984665,0.0000,12/03.6517/2027,2000,g  7.3,4.0
# From MPEC 2026-J11
C/2024 E1 (Wierzchos),h,01/20.7750/2026,75.2378,108.0798,243.6267,1.000266,0.566141,2000,7.0,4.0
# From MPC194188
C/2024 E2 (Bok),e,155.6526,135.6595,358.2190,51.07744,0.0027000,0.84925328,2.5627,06/01.0/2026,2000,g  8.0,4.0
# From MPC194188
P/2024 F1 (PANSTARRS),e,7.0064,251.5143,229.6076,3.446473,0.1540429,0.46021707,146.2040,06/01.0/2026,2000,g 16.0,4.0
# From MPC194189
C/2024 F2 (PANSTARRS),e,13.7450,138.9392,112.8630,9.945778,0.0314229,0.60118130,21.1196,06/01.0/2026,2000,g 11.0,4.0
# From MPC194189
P/2024 FG9 (Nanshan-Hahn),e,1.7308,253.0331,245.9645,3.258248,0.1675822,0.51002193,124.2520,06/01.0/2026,2000,g 14.0,4.0
# From MPC194189
C/2024 G1 (Wierzchos),e,95.3784,30.6027,128.2197,121.8226,0.0007330,0.96773937,0.4310,06/01.0/2026,2000,g 10.0,4.0
# From MPEC 2026-KB8
C/2024 G2 (ATLAS),e,122.1202,171.3991,328.7624,691.8750,0.0000542,0.99226915,0.0000,06/13.7114/2025,2000,g  7.0,4.0
# From MPC194189
C/2024 G3 (ATLAS),h,01/13.4261/2025,116.8415,220.4521,108.1872,1.000009,0.093684,2000,9.0,4.0
# From MPEC 2026-KB8
C/2024 G4 (PANSTARRS),e,33.0294,152.9710,131.4058,3721,0.0000043,0.99868280,0.0000,03/21.4323/2026,2000,g  8.0,4.0
# From MPC194189
C/2024 G5 (Leonard),e,50.3898,316.3824,209.6145,628.3356,0.0000626,0.99529900,0.0000,09/07.1939/2024,2000,g 13.0,4.0
# From MPEC 2026-KB8
C/2024 G6 (ATLAS),h,02/20.5415/2026,120.4477,250.9486,23.4190,1.001446,6.429982,2000,5.5,4.0
# From MPC194189
C/2024 G7 (ATLAS),h,02/09.8872/2025,131.5052,191.9755,289.6479,1.001420,6.027294,2000,7.0,4.0
# From MPC194189
P/2024 J1 (PANSTARRS),e,13.1637,321.9366,200.3862,3.809116,0.1325769,0.30782360,123.6175,06/01.0/2026,2000,g 14.5,4.0
# From MPC191588
C/2024 J2 (Wierzchos),e,79.3014,189.0668,143.1423,146.1648,0.0005578,0.98760944,0.0000,03/19.7343/2025,2000,g 11.5,4.0
# From MPEC 2026-KB8
